[
  {
    "norad_id": "49069",
    "name": "LEDSAT",
    "tle1": "1 49069U 21073D   25111.15482777  .00068325  00000+0  10531-2 0  9997\r",
    "tle2": "2 49069  97.3915 190.8710 0011201 248.2774 111.7287 15.53876625203740",
    "transmitters": [
      {
        "description": "Mode U - Beacon GMSK9k6 AX.100",
        "mode": "MSK AX.100 Mode 5",
        "status": "active",
        "uplink": null,
        "downlink": 435190000
      },
      {
        "description": "Mode U/U - Digipeater GMSK1k2 AX.100",
        "mode": "MSK AX.100 Mode 5",
        "status": "active",
        "uplink": 435310000,
        "downlink": 435190000
      }
    ],
    "image": "satellites/ledsat.png",
    "country": "IT"
  },
  {
    "norad_id": "60209",
    "name": "MESAT-1",
    "tle1": "1 60209U 24125G   25111.49355781  .00028114  00000+0  84767-3 0  9993\r",
    "tle2": "2 60209  97.2864 323.7087 0018259 316.8014  43.1795 15.34103942 44428",
    "transmitters": [
      {
        "description": "GlobalStar EyeStar 2M32G1D",
        "mode": "BPSK",
        "status": "active",
        "uplink": null,
        "downlink": 1616250000
      },
      {
        "description": "UHF TLM 1k2 BPSK",
        "mode": "BPSK",
        "status": "active",
        "uplink": null,
        "downlink": 435800000
      },
      {
        "description": "Mode V/U - BPSK1k2 - Transponder",
        "mode": "BPSK",
        "status": "active",
        "uplink": "145910000-145940000",
        "downlink": "435810000-435840000"
      }
    ],
    "image": "satellites/IMG_0571-317x422.jpg",
    "country": "US"
  },
  {
    "norad_id": "43780",
    "name": "MOVE-2",
    "tle1": "1 43780U 18099Y   25111.15949495  .00149299  00000+0  19522-2 0  9999\r",
    "tle2": "2 43780  97.4685 183.7113 0002988 247.9851 112.1088 15.58120047350068",
    "transmitters": [
      {
        "description": "CW Beacon",
        "mode": "CW",
        "status": "active",
        "uplink": null,
        "downlink": 145950000
      },
      {
        "description": "BPSK Telemetry",
        "mode": "BPSK",
        "status": "active",
        "uplink": null,
        "downlink": 145950000
      },
      {
        "description": "BPSK TLM IQ recording usage",
        "mode": "BPSK",
        "status": "active",
        "uplink": null,
        "downlink": 145950000
      }
    ],
    "image": "",
    "country": "DE"
  },
  {
    "norad_id": "26931",
    "name": "NO-44",
    "tle1": "1 26931U 01043C   25111.46659703  .00000458  00000+0  20246-3 0  9992\r",
    "tle2": "2 26931  67.0504 254.8188 0005603 271.2252  88.8208 14.31702947230070",
    "transmitters": [
      {
        "description": "Mode V/V APRS AFSK",
        "mode": "AFSK",
        "status": "active",
        "uplink": 145825000,
        "downlink": 145825000
      },
      {
        "description": "PE0SAT - 1k2 AFSK APRS",
        "mode": "AFSK",
        "status": "active",
        "uplink": null,
        "downlink": 145826800
      },
      {
        "description": "Mode V - R2 Backup APRS 1K2",
        "mode": "AFSK",
        "status": "active",
        "uplink": null,
        "downlink": 144390000
      }
    ],
    "image": "https://db-satnogs.freetls.fastly.net/media/satellites/no44.gif",
    "country": "US"
  },
  {
    "norad_id": "63211",
    "name": "NUSHSat-1",
    "tle1": "1 63211U 25052B   25111.28949259  .00018386  00000+0  87071-3 0  9996\r",
    "tle2": "2 63211  97.4462   6.0619 0006191 123.4382 236.7445 15.19367815  5764",
    "transmitters": [
      {
        "description": "Mode U - Transmitter",
        "mode": "FSK AX.100 Mode 5",
        "status": "active",
        "uplink": null,
        "downlink": 436200000
      }
    ],
    "image": "",
    "country": "SG"
  },
  {
    "norad_id": "60243",
    "name": "ROBUSTA-3A",
    "tle1": "1 60243U 24128J   25111.51859336  .00013053  00000+0  93659-3 0  9998\r",
    "tle2": "2 60243  61.9886 250.1906 0045693  40.0463 320.3982 15.03808845 42849",
    "transmitters": [
      {
        "description": "Mode U - GMSK9k6 - AX.25",
        "mode": "GMSK",
        "status": "active",
        "uplink": null,
        "downlink": 436750000
      },
      {
        "description": "Mode S - Transmitter",
        "mode": "FM",
        "status": "active",
        "uplink": null,
        "downlink": 2202000000
      }
    ],
    "image": "satellites/ROBUSTA-3A.png",
    "country": "FR"
  },
  {
    "norad_id": "27607",
    "name": "SaudiSat-1C",
    "tle1": "1 27607U 02058C   25111.61509133  .00002634  00000+0  34657-3 0  9997\r",
    "tle2": "2 27607  64.5558 351.6627 0050461 345.6582  14.3087 14.81460040202180",
    "transmitters": [
      {
        "description": "Mode V/U FM Voice CTCSS 67.0 Hz",
        "mode": "FM",
        "status": "active",
        "uplink": 145850000,
        "downlink": 436795000
      },
      {
        "description": "Mode V TLM",
        "mode": "FM",
        "status": "active",
        "uplink": null,
        "downlink": 149025000
      }
    ],
    "image": "https://db-satnogs.freetls.fastly.net/media/satellites/saudisat-so-50.jpg",
    "country": "SA"
  },
  {
    "norad_id": "59112",
    "name": "SONATE-2",
    "tle1": "1 59112U 24043Q   25111.33901036  .00024049  00000+0  73546-3 0  9992\r",
    "tle2": "2 59112  97.5056 241.6167 0010401 287.9201  72.0907 15.33802710 62782",
    "transmitters": [
      {
        "description": "Mode V - CW",
        "mode": "CW",
        "status": "active",
        "uplink": null,
        "downlink": 145840000
      },
      {
        "description": "Mode U - GMSK9k6 - AX.25 G3RUH - Telemetry",
        "mode": "GMSK",
        "status": "active",
        "uplink": null,
        "downlink": 437025000
      },
      {
        "description": "Mode V - SSTV - Martin M1 SSTV",
        "mode": "SSTV",
        "status": "active",
        "uplink": null,
        "downlink": 145880000
      },
      {
        "description": "Mode V/V - APRS digipeater",
        "mode": "AFSK",
        "status": "active",
        "uplink": 145825000,
        "downlink": 145825000
      },
      {
        "description": "Mode S - QPSK 2.048 Msps - CCSDS 131.0-B Convolutional code k=7, r=0.5, randomizer on",
        "mode": "QPSK",
        "status": "active",
        "uplink": null,
        "downlink": 2267700000
      }
    ],
    "image": "satellites/sonate-2.png",
    "country": "DE"
  },
  {
    "norad_id": "43804",
    "name": "Suomi-100",
    "tle1": "1 43804U 18099AY  25111.61802410  .00015461  00000+0  77728-3 0  9998\r",
    "tle2": "2 43804  97.4775 170.5927 0011180 323.3640  36.6828 15.17285499349272",
    "transmitters": [
      {
        "description": "GMSK9k6 TLM",
        "mode": "MSK AX.100 Mode 5",
        "status": "active",
        "uplink": null,
        "downlink": 437775000
      }
    ],
    "image": "satellites/suomi1001.png",
    "country": "FI"
  },
  {
    "norad_id": "43188",
    "name": "S-NetA",
    "tle1": "1 43188U 18014J   25111.31395462  .00007858  00000+0  47074-3 0  9993\r",
    "tle2": "2 43188  97.5673  14.8453 0011071  40.0229 320.1815 15.11216809394937",
    "transmitters": [
      {
        "description": "S-Band Downlink",
        "mode": "FM",
        "status": "active",
        "uplink": null,
        "downlink": 2263000000
      },
      {
        "description": "AFSK 1k2 TLM",
        "mode": "AFSK TUBiX10",
        "status": "active",
        "uplink": null,
        "downlink": 435950000
      }
    ],
    "image": "",
    "country": "DE"
  },
  {
    "norad_id": "49396",
    "name": "TeikyoSat-4",
    "tle1": "1 49396U 21102B   25111.69862050  .00003593  00000+0  24119-3 0  9992\r",
    "tle2": "2 49396  97.4161 151.8852 0010902 306.1357  53.8861 15.07387917189184",
    "transmitters": [
      {
        "description": "Mode U - CW Beacon",
        "mode": "CW",
        "status": "active",
        "uplink": null,
        "downlink": 437450000
      },
      {
        "description": "Mode U - AFSK1k2",
        "mode": "AFSK",
        "status": "active",
        "uplink": null,
        "downlink": 437450000
      },
      {
        "description": "Mode U - GMSK9k6",
        "mode": "GMSK",
        "status": "active",
        "uplink": null,
        "downlink": 437450000
      },
      {
        "description": "Mode U - SSTV",
        "mode": "SSTV",
        "status": "active",
        "uplink": null,
        "downlink": 437450000
      },
      {
        "description": "Mode S - FSK115k2",
        "mode": "FSK",
        "status": "active",
        "uplink": null,
        "downlink": 5831000000
      }
    ],
    "image": "satellites/TS4_patch.jpg",
    "country": "JP"
  },
  {
    "norad_id": "63217",
    "name": "TEVEL2-1",
    "tle1": "1 63217U 25052H   25110.24569971  .00020850  00000+0  10014-2 0  9997\r",
    "tle2": "2 63217  97.4351   4.9631 0004526 147.1843 212.9674 15.18859078  5602",
    "transmitters": [],
    "image": "satellites/transit-o__1.jpg",
    "country": "US"
  },
  {
    "norad_id": "63218",
    "name": "TEVEL2-2",
    "tle1": "1 63218U 25052J   25111.23411266  .00017340  00000+0  83319-3 0  9990\r",
    "tle2": "2 63218  97.4342   5.9368 0004684 141.8591 218.2976 15.18882429  5753",
    "transmitters": [],
    "image": "satellites/transit-o__1.jpg",
    "country": "US"
  },
  {
    "norad_id": "63219",
    "name": "TEVEL2-3",
    "tle1": "1 63219U 25052K   25109.65296421  .00022170  00000+0  10653-2 0  9995\r",
    "tle2": "2 63219  97.4354   4.3800 0004507 148.3428 211.8078 15.18830559  5519",
    "transmitters": [],
    "image": "satellites/transit-o__1.jpg",
    "country": "US"
  },
  {
    "norad_id": "63213",
    "name": "TEVEL2-4",
    "tle1": "1 63213U 25052D   25111.22850422  .00018075  00000+0  86203-3 0  9996\r",
    "tle2": "2 63213  97.4382   5.9537 0004798 131.1274 229.0375 15.19132971  5750",
    "transmitters": [],
    "image": "satellites/transit-o__1.jpg",
    "country": "US"
  }
]